REAL                    
1 64875U 25154G   26068.72233414  .00022901  00000+0  82904-3 0  9994
2 64875  97.4133 137.2581 0001853 118.5876 241.5550 15.28408058 34830
STARLINK-35787          
1 66978U 25288V   26068.25149283  .00024342  00000+0  89156-3 0  9993
2 66978  43.0028  25.6444 0001335 274.6201  85.4498 15.27565968 15226
